[{"id":"node/219991384","nameGe":"სარფი","nameEn":"Sarpi","name":"სარფი","long":41.5486603,"lat":41.5217514,"subRegionCode":"GE.GU.LK","subRegionName":"Lanchkhuti","regionName":"Guria"},{"id":"node/288626875","nameGe":"სუფსა","nameEn":"Supsa","name":"სუფსა","population":"365","long":41.812732,"lat":42.0438021,"subRegionCode":"GE.GU.LK","subRegionName":"Lanchkhuti","regionName":"Guria"},{"id":"node/306552853","nameGe":"შრომისუბანი","nameEn":"Shromisubani","name":"შრომისუბანი","long":41.8637307,"lat":42.0304924,"subRegionCode":"GE.GU.LK","subRegionName":"Lanchkhuti","regionName":"Guria"},{"id":"node/479746714","nameGe":"მალთაყვა","nameEn":"Maltakva","name":"მალთაყვა","population":"86","long":41.7260436,"lat":42.0589627,"subRegionCode":"GE.GU.LK","subRegionName":"Lanchkhuti","regionName":"Guria"},{"id":"node/479746715","nameGe":"გრიგოლეთი","nameEn":"Grigoleti","name":"გრიგოლეთი","long":41.7363703,"lat":42.039914,"subRegionCode":"GE.GU.LK","subRegionName":"Lanchkhuti","regionName":"Guria"},{"id":"node/479746716","nameGe":"ხიდმაღალა","nameEn":"Khidmaghala","name":"ხიდმაღალა","population":"1022","long":41.7881312,"lat":42.0369218,"subRegionCode":"GE.GU.LK","subRegionName":"Lanchkhuti","regionName":"Guria"},{"id":"node/479746717","nameGe":"ტაბანათი","nameEn":"Tabanati","name":"ტაბანათი","long":41.816788,"lat":42.047689,"subRegionCode":"GE.GU.LK","subRegionName":"Lanchkhuti","regionName":"Guria"},{"id":"node/479746718","nameGe":"ახალსოფელი","nameEn":"Akhalsopeli","name":"ახალსოფელი","long":41.8409996,"lat":42.0591677,"subRegionCode":"GE.GU.LK","subRegionName":"Lanchkhuti","regionName":"Guria"},{"id":"node/479746719","nameGe":"ჩქუნი","nameEn":"Chkuni","name":"ჩქუნი","long":41.8417604,"lat":42.0399143,"subRegionCode":"GE.GU.LK","subRegionName":"Lanchkhuti","regionName":"Guria"},{"id":"node/479746720","nameGe":"ღრმაღელე","nameEn":"Grmagele","name":"ღრმაღელე","long":41.832768,"lat":42.0277019,"subRegionCode":"GE.GU.LK","subRegionName":"Lanchkhuti","regionName":"Guria"},{"id":"node/479746721","nameGe":"ომფარეთი","nameEn":"Ompareti","name":"ომფარეთი","long":41.8173555,"lat":42.0185088,"subRegionCode":"GE.GU.LK","subRegionName":"Lanchkhuti","regionName":"Guria"},{"id":"node/479748231","nameGe":"წყალწმინდა","nameEn":"Tskaltsminda","name":"წყალწმინდა","long":41.7782831,"lat":42.0131401,"subRegionCode":"GE.GU.LK","subRegionName":"Lanchkhuti","regionName":"Guria"},{"id":"node/479748232","nameGe":"ურეკი","nameEn":"Ureki","name":"ურეკი","long":41.7793458,"lat":41.9969365,"subRegionCode":"GE.GU.LK","subRegionName":"Lanchkhuti","regionName":"Guria"},{"id":"node/479748233","nameGe":"ხაჯალია","nameEn":"Khajalia","name":"ხაჯალია","long":41.8753682,"lat":42.0641495,"subRegionCode":"GE.GU.LK","subRegionName":"Lanchkhuti","regionName":"Guria"},{"id":"node/479748237","nameGe":"ნიგვზიანი","nameEn":"Nigvziani","name":"ნიგვზიანი","long":41.905673,"lat":42.0768176,"subRegionCode":"GE.GU.LK","subRegionName":"Lanchkhuti","regionName":"Guria"},{"id":"node/479748241","nameGe":"ჯურუყვეთი","nameEn":"Jurukveti","name":"ჯურუყვეთი","long":41.9283448,"lat":42.0811525,"subRegionCode":"GE.GU.LK","subRegionName":"Lanchkhuti","regionName":"Guria"},{"id":"node/479748247","nameGe":"ჩოჩხათი","nameEn":"Chochkhati","name":"ჩოჩხათი","long":41.8922168,"lat":42.0275049,"subRegionCode":"GE.GU.LK","subRegionName":"Lanchkhuti","regionName":"Guria"},{"id":"node/479748249","nameGe":"ჯიხანჯირი","nameEn":"Jikhanjiri","name":"ჯიხანჯირი","long":41.8772543,"lat":42.0429631,"subRegionCode":"GE.GU.LK","subRegionName":"Lanchkhuti","regionName":"Guria"},{"id":"node/479762228","nameGe":"ორმეთი","nameEn":"Ormeti","name":"ორმეთი","population":"342","long":41.8594793,"lat":42.0122102,"subRegionCode":"GE.GU.LK","subRegionName":"Lanchkhuti","regionName":"Guria"},{"id":"node/479762230","nameGe":"მოედანი","nameEn":"Moedani","name":"მოედანი","long":41.8797293,"lat":42.0097025,"subRegionCode":"GE.GU.LK","subRegionName":"Lanchkhuti","regionName":"Guria"},{"id":"node/479762232","nameGe":"ხორეთი","nameEn":"Khoreti","name":"ხორეთი","long":41.8882793,"lat":42.0199834,"subRegionCode":"GE.GU.LK","subRegionName":"Lanchkhuti","regionName":"Guria"},{"id":"node/479762235","nameGe":"კოკათი","nameEn":"Kokati","name":"კოკათი","long":41.9003168,"lat":42.0177267,"subRegionCode":"GE.GU.LK","subRegionName":"Lanchkhuti","regionName":"Guria"},{"id":"node/479762252","nameGe":"გულიანი","nameEn":"Guliani","name":"გულიანი","long":41.9228168,"lat":42.0209863,"subRegionCode":"GE.GU.LK","subRegionName":"Lanchkhuti","regionName":"Guria"},{"id":"node/479762255","nameGe":"ნინოშვილი","nameEn":"Ninoshvili","name":"ნინოშვილი","long":41.9382294,"lat":42.0363625,"subRegionCode":"GE.GU.LK","subRegionName":"Lanchkhuti","regionName":"Guria"},{"id":"node/479762257","nameGe":"ჩანჩეთი","nameEn":"Chancheti","name":"ჩანჩეთი","long":41.9230419,"lat":42.0468898,"subRegionCode":"GE.GU.LK","subRegionName":"Lanchkhuti","regionName":"Guria"},{"id":"node/479762259","nameGe":"არჩეული","nameEn":"Archeuli","name":"არჩეული","long":41.9220293,"lat":42.0618419,"subRegionCode":"GE.GU.LK","subRegionName":"Lanchkhuti","regionName":"Guria"},{"id":"node/479780348","nameGe":"ეწერი","nameEn":"Etseri","name":"ეწერი","long":41.9449769,"lat":42.0695618,"subRegionCode":"GE.GU.LK","subRegionName":"Lanchkhuti","regionName":"Guria"},{"id":"node/479780351","nameGe":"ქვემო ჩიბათი","nameEn":"Zemo Chibati","name":"ქვემო ჩიბათი","long":41.9819613,"lat":42.0764511,"subRegionCode":"GE.GU.LK","subRegionName":"Lanchkhuti","regionName":"Guria"},{"id":"node/479780354","nameGe":"ლესა","nameEn":"Lesa","name":"ლესა","long":41.9599085,"lat":42.0816139,"subRegionCode":"GE.GU.LK","subRegionName":"Lanchkhuti","regionName":"Guria"},{"id":"node/479780356","nameGe":"ქვემო ჩიბათი","nameEn":"Kvemo Chibati","name":"ქვემო ჩიბათი","long":41.9852972,"lat":42.0840186,"subRegionCode":"GE.GU.LK","subRegionName":"Lanchkhuti","regionName":"Guria"},{"id":"node/479780359","nameGe":"ჭალა","nameEn":"Chala","name":"ჭალა","long":42.0051564,"lat":42.0808444,"subRegionCode":"GE.GU.LK","subRegionName":"Lanchkhuti","regionName":"Guria"},{"id":"node/479780361","nameGe":"ჯუნეწერი","nameEn":"Junetseri","name":"ჯუნეწერი","long":42.0171264,"lat":42.0761683,"subRegionCode":"GE.GU.LK","subRegionName":"Lanchkhuti","regionName":"Guria"},{"id":"node/479780364","nameGe":"მაჩხვარეთი","nameEn":"Machkhvareti","name":"მაჩხვარეთი","long":42.0236065,"lat":42.074899,"subRegionCode":"GE.GU.LK","subRegionName":"Lanchkhuti","regionName":"Guria"},{"id":"node/479780366","nameGe":"გვიმრალაური","nameEn":"Gvimralauri","name":"გვიმრალაური","long":42.021647,"lat":42.0907265,"subRegionCode":"GE.GU.LK","subRegionName":"Lanchkhuti","regionName":"Guria"},{"id":"node/479780376","nameGe":"ლაშისღელე","nameEn":"Lashisghele","name":"ლაშისღელე","long":42.0514703,"lat":42.0782356,"subRegionCode":"GE.GU.LK","subRegionName":"Lanchkhuti","regionName":"Guria"},{"id":"node/479780378","nameGe":"ჯუნმერე","nameEn":"Junmere","name":"ჯუნმერე","long":42.0137285,"lat":42.0648356,"subRegionCode":"GE.GU.LK","subRegionName":"Lanchkhuti","regionName":"Guria"},{"id":"node/479780381","nameGe":"ორაგვე","nameEn":"Oragve","name":"ორაგვე","long":42.0073385,"lat":42.0502015,"subRegionCode":"GE.GU.LK","subRegionName":"Lanchkhuti","regionName":"Guria"},{"id":"node/479780384","nameGe":"ჭინათი","nameEn":"Chinati","name":"ჭინათი","long":41.9897885,"lat":42.0564164,"subRegionCode":"GE.GU.LK","subRegionName":"Lanchkhuti","regionName":"Guria"},{"id":"node/479780386","nameGe":"ბაღლები","nameEn":"Baghlevi","name":"ბაღლები","long":41.9652215,"lat":42.0493029,"subRegionCode":"GE.GU.LK","subRegionName":"Lanchkhuti","regionName":"Guria"},{"id":"node/479780388","nameGe":"ქვემო შუხუთი","nameEn":"Kvemo Shukhuti","name":"ქვემო შუხუთი","long":42.0714664,"lat":42.0749198,"subRegionCode":"GE.GU.LK","subRegionName":"Lanchkhuti","regionName":"Guria"},{"id":"node/479780391","nameGe":"ზემო შუხუთი","nameEn":"Zemo Shukhuti","name":"ზემო შუხუთი","long":42.0945206,"lat":42.0797634,"subRegionCode":"GE.GU.LK","subRegionName":"Lanchkhuti","regionName":"Guria"},{"id":"node/479780393","nameGe":"ნიგოითი","nameEn":"Nigoiti","name":"ნიგოითი","long":42.1081617,"lat":42.082054,"subRegionCode":"GE.GU.LK","subRegionName":"Lanchkhuti","regionName":"Guria"},{"id":"node/479780395","nameGe":"ჩოლაბარგი","nameEn":"Cholabargi","name":"ჩოლაბარგი","long":42.1271195,"lat":42.0851,"subRegionCode":"GE.GU.LK","subRegionName":"Lanchkhuti","regionName":"Guria"},{"id":"node/479780398","nameGe":"ჭყონაგორა","nameEn":"Chkonagora","name":"ჭყონაგორა","long":42.1419877,"lat":42.0873499,"subRegionCode":"GE.GU.LK","subRegionName":"Lanchkhuti","regionName":"Guria"},{"id":"node/479780400","nameGe":"ქვიანი","nameEn":"Kviani","name":"ქვიანი","long":42.1665929,"lat":42.0893931,"subRegionCode":"GE.GU.LK","subRegionName":"Lanchkhuti","regionName":"Guria"},{"id":"node/479780402","nameGe":"ჯაპანა","nameEn":"Japana","name":"ჯაპანა","long":42.2014224,"lat":42.09648,"subRegionCode":"GE.GU.LK","subRegionName":"Lanchkhuti","regionName":"Guria"},{"id":"node/479780434","nameGe":"გაგური","nameEn":"Gaguri","name":"გაგური","long":42.097443,"lat":42.025818,"subRegionCode":"GE.GU.LK","subRegionName":"Lanchkhuti","regionName":"Guria"},{"id":"node/479780437","nameGe":"ზემო აკეთი","nameEn":"Zemo Aketi","name":"ზემო აკეთი","long":42.095791,"lat":42.0465114,"subRegionCode":"GE.GU.LK","subRegionName":"Lanchkhuti","regionName":"Guria"},{"id":"node/479792557","nameGe":"აცანა","nameEn":"Atsana","name":"აცანა","population":"1095","long":42.0659454,"lat":42.0495241,"subRegionCode":"GE.GU.LK","subRegionName":"Lanchkhuti","regionName":"Guria"},{"id":"node/479792559","nameGe":"ტელმანი","nameEn":"Telmani","name":"ტელმანი","population":"306","long":42.0579908,"lat":42.0411643,"subRegionCode":"GE.GU.LK","subRegionName":"Lanchkhuti","regionName":"Guria"},{"id":"node/479792561","nameGe":"შათირი","nameEn":"Shatiri","name":"შათირი","long":42.0502229,"lat":42.0258266,"subRegionCode":"GE.GU.LK","subRegionName":"Lanchkhuti","regionName":"Guria"},{"id":"node/479792564","nameGe":"მამათი","nameEn":"Mamati","name":"მამათი","long":42.0359441,"lat":42.0202865,"subRegionCode":"GE.GU.LK","subRegionName":"Lanchkhuti","regionName":"Guria"},{"id":"node/479792566","nameGe":"ქვემო აკეთი","nameEn":"Kvemo Aketi","name":"ქვემო აკეთი","long":42.0886431,"lat":42.0140816,"subRegionCode":"GE.GU.LK","subRegionName":"Lanchkhuti","regionName":"Guria"},{"id":"node/479792574","nameGe":"კონჭკათი","nameEn":"Konchkati","name":"კონჭკათი","long":42.028315,"lat":42.0104246,"subRegionCode":"GE.GU.LK","subRegionName":"Lanchkhuti","regionName":"Guria"},{"id":"node/479792576","nameGe":"სილაური","nameEn":"Silauri","name":"სილაური","long":42.0008931,"lat":41.9968398,"subRegionCode":"GE.GU.LK","subRegionName":"Lanchkhuti","regionName":"Guria"},{"id":"node/479792579","nameGe":"ქვედა მამათი","nameEn":"Kveda Мamati","name":"ქვედა მამათი","long":42.0119991,"lat":42.024376,"subRegionCode":"GE.GU.LK","subRegionName":"Lanchkhuti","regionName":"Guria"},{"id":"node/479792581","nameGe":"ყელა","nameEn":"Kela","name":"ყელ","long":41.9419489,"lat":42.0280459,"subRegionCode":"GE.GU.LK","subRegionName":"Lanchkhuti","regionName":"Guria"},{"id":"node/1824345116","nameGe":"ლაზიკა","nameEn":"Lazika","name":"ლაზიკა","long":41.5921071,"lat":42.3719304,"subRegionCode":"GE.GU.LK","subRegionName":"Lanchkhuti","regionName":"Guria"},{"id":"node/1840905289","nameGe":"ერისიმედი","nameEn":"Ensimedi","name":"ერისიმედი","long":46.3303739,"lat":41.5946176,"subRegionCode":"GE.GU.LK","subRegionName":"Lanchkhuti","regionName":"Guria"}]
